Satellite: LITSAT-1
Catalog number: 39568
Epoch time:      14072.76506024
Element set:      10
Inclination:      051.6466 deg
RA of node:       212.3235 deg
Eccentricity:    0.0005965
Arg of perigee:   300.9023 deg
Mean anomaly:     200.3267 deg
Mean motion:   15.55360598 rev/day
Decay rate:    1.55253e-03 rev/day^2
Epoch rev:             207
Checksum:              269

Satellite: LITUANSAT
Catalog number: 39569
Epoch time:      14072.83185112
Element set:      48
Inclination:      051.6479 deg
RA of node:       212.0550 deg
Eccentricity:    0.0005330
Arg of perigee:   293.1767 deg
Mean anomaly:     189.4558 deg
Mean motion:   15.54019405 rev/day
Decay rate:     9.9721e-04 rev/day^2
Epoch rev:             208
Checksum:              299

Satellite: SHINAISAT
Catalog number: 39572
Epoch time:      14072.73881896
Element set:      27
Inclination:      065.0125 deg
RA of node:       012.1302 deg
Eccentricity:    0.0011685
Arg of perigee:   282.2781 deg
Mean anomaly:     077.7575 deg
Mean motion:   15.59940006 rev/day
Decay rate:     5.1475e-04 rev/day^2
Epoch rev:             217
Checksum:              294

Satellite: OPUSAT
Catalog number: 39575
Epoch time:      14072.98643444
Element set:      31
Inclination:      065.0161 deg
RA of node:       011.1050 deg
Eccentricity:    0.0003989
Arg of perigee:   317.4251 deg
Mean anomaly:     118.6770 deg
Mean motion:   15.63091717 rev/day
Decay rate:    1.10847e-03 rev/day^2
Epoch rev:             221
Checksum:              270

Satellite: TEIKYOSAT
Catalog number: 39576
Epoch time:      14072.99731425
Element set:      26
Inclination:      065.0162 deg
RA of node:       011.1707 deg
Eccentricity:    0.0006169
Arg of perigee:   296.7655 deg
Mean anomaly:     137.4669 deg
Mean motion:   15.61332240 rev/day
Decay rate:     6.8300e-04 rev/day^2
Epoch rev:             221
Checksum:              283

Satellite: IFT-1
Catalog number: 39577
Epoch time:      14072.59174076
Element set:      27
Inclination:      065.0123 deg
RA of node:       012.4827 deg
Eccentricity:    0.0005131
Arg of perigee:   320.5079 deg
Mean anomaly:     039.6214 deg
Mean motion:   15.62456726 rev/day
Decay rate:     7.5486e-04 rev/day^2
Epoch rev:             215
Checksum:              286

Satellite: INVADER
Catalog number: 39578
Epoch time:      14072.83908163
Element set:      23
Inclination:      065.0084 deg
RA of node:       011.5675 deg
Eccentricity:    0.0004252
Arg of perigee:   297.4910 deg
Mean anomaly:     062.5922 deg
Mean motion:   15.64487193 rev/day
Decay rate:    1.69401e-03 rev/day^2
Epoch rev:             219
Checksum:              295

